[{"OBJECT_NAME":"SDA_1680","OBJECT_ID":"2025-230S","EPOCH":"2026-03-09T23:22:27.829344","MEAN_MOTION":13.85216593,"ECCENTRICITY":0.00048476,"INCLINATION":81.3005,"RA_OF_ASC_NODE":303.6494,"ARG_OF_PERICENTER":103.2201,"MEAN_ANOMALY":256.9497,"EPHEMERIS_TYPE":0,"CLASSIFICATION_TYPE":"U","NORAD_CAT_ID":65990,"ELEMENT_SET_NO":999,"REV_AT_EPOCH":2008,"BSTAR":0.00016774776,"MEAN_MOTION_DOT":2.02e-6,"MEAN_MOTION_DDOT":0},{"OBJECT_NAME":"SL-8 R\/B","OBJECT_ID":"1976-078B","EPOCH":"2026-03-09T23:43:53.690304","MEAN_MOTION":13.78721496,"ECCENTRICITY":0.00271376,"INCLINATION":82.9278,"RA_OF_ASC_NODE":89.7412,"ARG_OF_PERICENTER":278.725,"MEAN_ANOMALY":145.0468,"EPHEMERIS_TYPE":0,"CLASSIFICATION_TYPE":"U","NORAD_CAT_ID":9062,"ELEMENT_SET_NO":999,"REV_AT_EPOCH":49469,"BSTAR":-1.9862237e-5,"MEAN_MOTION_DOT":-5.0e-8,"MEAN_MOTION_DDOT":0}]
